[{"OBJECT_NAME":"GEOEYE 1","OBJECT_ID":"2008-042A","EPOCH":"2026-03-09T21:23:49.829280","MEAN_MOTION":14.64767673,"ECCENTRICITY":0.00039854,"INCLINATION":98.1206,"RA_OF_ASC_NODE":144.0766,"ARG_OF_PERICENTER":27.9279,"MEAN_ANOMALY":332.2138,"EPHEMERIS_TYPE":0,"CLASSIFICATION_TYPE":"U","NORAD_CAT_ID":33331,"ELEMENT_SET_NO":999,"REV_AT_EPOCH":93561,"BSTAR":0.00013730387,"MEAN_MOTION_DOT":6.84e-6,"MEAN_MOTION_DDOT":0},{"OBJECT_NAME":"CZ-6A DEB","OBJECT_ID":"2024-140MZ","EPOCH":"2026-03-09T13:05:45.590784","MEAN_MOTION":14.43707945,"ECCENTRICITY":0.00954526,"INCLINATION":88.8873,"RA_OF_ASC_NODE":275.7886,"ARG_OF_PERICENTER":301.9722,"MEAN_ANOMALY":57.2229,"EPHEMERIS_TYPE":0,"CLASSIFICATION_TYPE":"U","NORAD_CAT_ID":61083,"ELEMENT_SET_NO":999,"REV_AT_EPOCH":8083,"BSTAR":0.00011941889,"MEAN_MOTION_DOT":4.44e-6,"MEAN_MOTION_DDOT":0}]
